API VERSION: 1.2
API SOURCE: NASA/JPL Horizons API



*******************************************************************************
Ephemeris / API_USER Sun Apr  5 18:55:15 2026 Pasadena, USA      / Horizons
*******************************************************************************
Target body name: Earth (399)                     {source: DE441}
Center body name: Sun (10)                        {source: DE441}
Center-site name: BODY CENTER
*******************************************************************************
Start time      : A.D. 2022-Jan-01 00:00:00.0000 TDB
Stop  time      : A.D. 2026-Dec-31 00:00:00.0000 TDB
Step-size       : 1440 minutes
*******************************************************************************
Center geodetic : 0.0, 0.0, 0.0                   {E-lon(deg),Lat(deg),Alt(km)}
Center cylindric: 0.0, 0.0, 0.0                   {E-lon(deg),Dxy(km),Dz(km)}
Center radii    : 695700.0, 695700.0, 695700.0 km {Equator_a, b, pole_c}
Output units    : AU-D
Calendar mode   : Mixed Julian/Gregorian
Output type     : GEOMETRIC cartesian states
Output format   : 2 (position and velocity)
Reference frame : Ecliptic of J2000.0
*******************************************************************************
            JDTDB,            Calendar Date (TDB),                      X,                      Y,                      Z,                     VX,                     VY,                     VZ,
**************************************************************************************************************************************************************************************************
$$SOE
2459832.500000000, A.D. 2022-Sep-10 00:00:00.0000,  9.811858444208922E-01, -2.269820998497231E-01,  8.527019534455640E-06,  3.595260101742025E-03,  1.668972208753361E-02, -1.144944559307720E-06,
2459833.500000000, A.D. 2022-Sep-11 00:00:00.0000,  9.846396451154968E-01, -2.102605116901105E-01,  7.312995970775403E-06,  3.312147264148615E-03,  1.675272860062610E-02, -1.278962097030660E-06,
2459834.500000000, A.D. 2022-Sep-12 00:00:00.0000,  9.878097441466110E-01, -1.934781001995313E-01,  5.978522295353422E-06,  3.027850540208685E-03,  1.681136131231265E-02, -1.384806207068285E-06,
2459835.500000000, A.D. 2022-Sep-13 00:00:00.0000,  9.906949420672866E-01, -1.766392666667372E-01,  4.554351783537991E-06,  2.742342256118147E-03,  1.686556046944770E-02, -1.457847516842877E-06,
2459836.500000000, A.D. 2022-Sep-14 00:00:00.0000,  9.932940232532191E-01, -1.597484844053551E-01,  3.074332159886526E-06,  2.455618646779682E-03,  1.691524385860320E-02, -1.496454020632268E-06,
2459837.500000000, A.D. 2022-Sep-15 00:00:00.0000,  9.956057814453474E-01, -1.428103150600672E-01,  1.572690619648848E-06,  2.167702075666454E-03,  1.696031890492328E-02, -1.501372738756490E-06,
2459838.500000000, A.D. 2022-Sep-16 00:00:00.0000,  9.976290447608281E-01, -1.258294139025173E-01,  8.204377417071572E-08,  1.878638173637285E-03,  1.700069220617395E-02, -1.474949596807729E-06,
2459839.500000000, A.D. 2022-Sep-17 00:00:00.0000,  9.993626964247362E-01, -1.088105274961840E-01, -1.367842115373966E-06,  1.588490583779803E-03,  1.703627520426746E-02, -1.420440696148495E-06,
2459840.500000000, A.D. 2022-Sep-18 00:00:00.0000,  1.000805690033709E+00, -9.175848753207262E-02, -2.750704895500770E-06,  1.297335585532853E-03,  1.706698631430186E-02, -1.341539448931534E-06,
2459841.500000000, A.D. 2022-Sep-19 00:00:00.0000,  1.001957059983301E+00, -7.467820386894902E-02, -4.044085839365057E-06,  1.005257945835676E-03,  1.709275058831105E-02, -1.242137205482796E-06,
2459842.500000000, A.D. 2022-Sep-20 00:00:00.0000,  1.002815928607699E+00, -5.757465864685463E-02, -5.229490711818642E-06,  7.123485300487682E-04,  1.711349808887554E-02, -1.126276805321921E-06,
2459843.500000000, A.D. 2022-Sep-21 00:00:00.0000,  1.003381511835032E+00, -4.045290225086220E-02, -6.292575625172643E-06,  4.187036991922689E-04,  1.712916196011201E-02, -9.982378982036509E-07,
2459844.500000000, A.D. 2022-Sep-22 00:00:00.0000,  1.003653125040707E+00, -2.331805102650541E-02, -7.223457194910956E-06,  1.244262539568029E-04,  1.713967696674157E-02, -8.626894300331097E-07,
2459845.500000000, A.D. 2022-Sep-23 00:00:00.0000,  1.003630190454897E+00, -6.175285962059306E-03, -8.017181586755062E-06, -1.703724826735092E-04,  1.714497911216863E-02, -7.248438531325733E-07,
2459846.500000000, A.D. 2022-Sep-24 00:00:00.0000,  1.003312246986070E+00,  1.097014899014411E-02, -8.674320406789696E-06, -4.655700308363364E-04,  1.714500680692399E-02, -5.905450809927275E-07,
2459847.500000000, A.D. 2022-Sep-25 00:00:00.0000,  1.002698962631599E+00,  2.811295065604390E-02, -9.201593010476013E-06, -7.610303641781741E-04,  1.713970384504578E-02, -4.662226923367831E-07,
2459848.500000000, A.D. 2022-Sep-26 00:00:00.0000,  1.001790148758115E+00,  4.524776423552459E-02, -9.612352654195780E-06, -1.056602725703959E-03,  1.712902407551717E-02, -3.586587378452975E-07,
2459849.500000000, A.D. 2022-Sep-27 00:00:00.0000,  1.000585774568693E+00,  6.236919617742530E-02, -9.926736385445757E-06, -1.352122572373977E-03,  1.711293713799139E-02, -2.745498200680497E-07,
2459850.500000000, A.D. 2022-Sep-28 00:00:00.0000,  9.990859793069637E-01,  7.947183286407317E-02, -1.017128855028500E-05, -1.647415198058741E-03,  1.709143412448909E-02, -2.199041476291686E-07,
2459851.500000000, A.D. 2022-Sep-29 00:00:00.0000,  9.972910795236583E-01,  9.655026434775958E-02, -1.037793795732067E-05, -1.942301896480370E-03,  1.706453179850066E-02, -1.993720956522663E-07,
2459852.500000000, A.D. 2022-Sep-30 00:00:00.0000,  9.952015692537538E-01,  1.135991110958661E-01, -1.058232627881875E-05, -2.236607778495671E-03,  1.703227425404149E-02, -2.156398787001662E-07,
2459853.500000000, A.D. 2022-Oct-01 00:00:00.0000,  9.928181120947469E-01,  1.306130508961824E-01, -1.082161076664804E-05, -2.530169924134166E-03,  1.699473156951475E-02, -2.689995559852226E-07,
2459854.500000000, A.D. 2022-Oct-02 00:00:00.0000,  9.901415254922190E-01,  1.475868430134414E-01, -1.113195219642978E-05, -2.822844646268225E-03,  1.695199575521030E-02, -3.571538548242858E-07,
2459855.500000000, A.D. 2022-Oct-03 00:00:00.0000,  9.871727585346435E-01,  1.645153472326961E-01, -1.154592696520053E-05, -3.114513133840831E-03,  1.690417470617949E-02, -4.752561850757962E-07,
2459856.500000000, A.D. 2022-Oct-04 00:00:00.0000,  9.839128650306536E-01,  1.813935361419392E-01, -1.209008577255066E-05, -3.405085226686271E-03,  1.685138481263899E-02, -6.161593983537030E-07,
2459857.500000000, A.D. 2022-Oct-05 00:00:00.0000,  9.803629737909865E-01,  1.982164995117412E-01, -1.278285812062719E-05, -3.694501197055115E-03,  1.679374258116723E-02, -7.708584038531868E-07,
2459858.500000000, A.D. 2022-Oct-06 00:00:00.0000,  9.765242582711819E-01,  2.149794398957330E-01, -1.363299938231443E-05, -3.982731150654241E-03,  1.673135551102506E-02, -9.291350357972474E-07,
2459859.500000000, A.D. 2022-Oct-07 00:00:00.0000,  9.723979082840640E-01,  2.316776589643712E-01, -1.463878629122432E-05, -4.269771366256116E-03,  1.666431284411490E-02, -1.080406942383430E-06,
2459860.500000000, A.D. 2022-Oct-08 00:00:00.0000,  9.679851071379189E-01,  2.483065350590368E-01, -1.578814258648263E-05, -4.555637076910883E-03,  1.659267754358642E-02, -1.214721583764426E-06,
2459861.500000000, A.D. 2022-Oct-09 00:00:00.0000,  9.632870176512532E-01,  2.648614941239435E-01, -1.705977125104568E-05, -4.840352114324076E-03,  1.651648139349833E-02, -1.323742624606566E-06,
2459862.500000000, A.D. 2022-Oct-10 00:00:00.0000,  9.583047794180704E-01,  2.813379779994343E-01, -1.842518001300081E-05, -5.123937153749912E-03,  1.643572480228270E-02, -1.401513334755924E-06,
2459863.500000000, A.D. 2022-Oct-11 00:00:00.0000,  9.530395174469570E-01,  2.977314150575577E-01, -1.985127777256469E-05, -5.406399175592819E-03,  1.635038158632495E-02, -1.444812706593393E-06,
2459864.500000000, A.D. 2022-Oct-12 00:00:00.0000,  9.474923597040740E-01,  3.140371975892858E-01, -2.130309304179510E-05, -5.687724502102207E-03,  1.626040733641301E-02, -1.453047369699645E-06,
2459865.500000000, A.D. 2022-Oct-13 00:00:00.0000,  9.416644593306508E-01,  3.302506683388572E-01, -2.274618739937232E-05, -5.967876444710152E-03,  1.616574890635747E-02, -1.427776707377579E-06,
2459866.500000000, A.D. 2022-Oct-14 00:00:00.0000,  9.355570170843894E-01,  3.463671160632963E-01, -2.414848971809364E-05, -6.246797004082726E-03,  1.606635264006375E-02, -1.372064426264208E-06,
2459867.500000000, A.D. 2022-Oct-15 00:00:00.0000,  9.291713006969544E-01,  3.623817780431844E-01, -2.548147861354663E-05, -6.524411033328906E-03,  1.596216990957033E-02, -1.289851822836075E-06,
2459868.500000000, A.D. 2022-Oct-16 00:00:00.0000,  9.225086595861467E-01,  3.782898466308474E-01, -2.672080682176028E-05, -6.800631093275043E-03,  1.585315968881656E-02, -1.185483163517217E-06,
2459869.500000000, A.D. 2022-Oct-17 00:00:00.0000,  9.155705349564882E-01,  3.940864770947474E-01, -2.784655081822484E-05, -7.075361643996626E-03,  1.573928870453883E-02, -1.063433197992866E-06,
2459870.500000000, A.D. 2022-Oct-18 00:00:00.0000,  9.083584663818840E-01,  4.097667947688660E-01, -2.884328644216206E-05, -7.348501807464464E-03,  1.562053005147208E-02, -9.282264811788946E-07,
2459871.500000000, A.D. 2022-Oct-19 00:00:00.0000,  9.008740964725048E-01,  4.253259004311249E-01, -2.970016281550459E-05, -7.619946420112468E-03,  1.549686117919513E-02, -7.845061106379782E-07,
2459872.500000000, A.D. 2022-Oct-20 00:00:00.0000,  8.931191753420274E-01,  4.407588736963341E-01, -3.041109683517689E-05, -7.889585402631736E-03,  1.536826206134790E-02, -6.371962079762017E-07,
2459873.500000000, A.D. 2022-Oct-21 00:00:00.0000,  8.850955664570433E-01,  4.560607749767944E-01, -3.097515083425688E-05, -8.157301681453049E-03,  1.523471428022931E-02, -4.916943157907288E-07,
